{
    "links": {
        "self": "http://www.neowsapp.com/rest/v1/neo/3843429?api_key=iIulBulltgU6a56xZRHN4H3l9WmuAYTsLGpBGhQ2"
    },
    "id": "3843429",
    "neo_reference_id": "3843429",
    "name": "(2019 OX3)",
    "designation": "2019 OX3",
    "nasa_jpl_url": "http://ssd.jpl.nasa.gov/sbdb.cgi?sstr=3843429",
    "absolute_magnitude_h": 27.8,
    "estimated_diameter": {
        "kilometers": {
            "estimated_diameter_min": 0.0073207399,
            "estimated_diameter_max": 0.016369672
        },
        "meters": {
            "estimated_diameter_min": 7.3207398935,
            "estimated_diameter_max": 16.3696720474
        },
        "miles": {
            "estimated_diameter_min": 0.0045488955,
            "estimated_diameter_max": 0.0101716395
        },
        "feet": {
            "estimated_diameter_min": 24.0181762721,
            "estimated_diameter_max": 53.70627484
        }
    },
    "is_potentially_hazardous_asteroid": false,
    "close_approach_data": [
        {
            "close_approach_date": "1960-03-16",
            "close_approach_date_full": "1960-Mar-16 07:36",
            "epoch_date_close_approach": -309111840000,
            "relative_velocity": {
                "kilometers_per_second": "15.0866239888",
                "kilometers_per_hour": "54311.8463596055",
                "miles_per_hour": "33747.2692005004"
            },
            "miss_distance": {
                "astronomical": "0.3023822875",
                "lunar": "117.6267098375",
                "kilometers": "45235746.135727625",
                "miles": "28108189.254686225"
            },
            "orbiting_body": "Earth"
        },
        {
            "close_approach_date": "2019-07-29",
            "close_approach_date_full": "2019-Jul-29 22:50",
            "epoch_date_close_approach": 1564440600000,
            "relative_velocity": {
                "kilometers_per_second": "13.8273558725",
                "kilometers_per_hour": "49778.4811409471",
                "miles_per_hour": "30930.4123511624"
            },
            "miss_distance": {
                "astronomical": "0.00757571",
                "lunar": "2.94695119",
                "kilometers": "1133310.0797377",
                "miles": "704206.22907226"
            },
            "orbiting_body": "Moon"
        },
        {
            "close_approach_date": "2019-07-30",
            "close_approach_date_full": "2019-Jul-30 03:01",
            "epoch_date_close_approach": 1564455660000,
            "relative_velocity": {
                "kilometers_per_second": "13.2779096941",
                "kilometers_per_hour": "47800.4748987593",
                "miles_per_hour": "29701.3561947318"
            },
            "miss_distance": {
                "astronomical": "0.0059532613",
                "lunar": "2.3158186457",
                "kilometers": "890595.210033431",
                "miles": "553390.2024701078"
            },
            "orbiting_body": "Earth"
        },
        {
            "close_approach_date": "2062-03-09",
            "close_approach_date_full": "2062-Mar-09 15:16",
            "epoch_date_close_approach": 2909142960000,
            "relative_velocity": {
                "kilometers_per_second": "9.1698001484",
                "kilometers_per_hour": "33011.2805340837",
                "miles_per_hour": "20511.9259518588"
            },
            "miss_distance": {
                "astronomical": "0.3854399528",
                "lunar": "149.9361416392",
                "kilometers": "57660995.951780536",
                "miles": "35828881.4771259568"
            },
            "orbiting_body": "Earth"
        },
        {
            "close_approach_date": "2062-07-08",
            "close_approach_date_full": "2062-Jul-08 16:08",
            "epoch_date_close_approach": 2919600480000,
            "relative_velocity": {
                "kilometers_per_second": "10.7268979629",
                "kilometers_per_hour": "38616.8326662928",
                "miles_per_hour": "23994.9980531195"
            },
            "miss_distance": {
                "astronomical": "0.1850365501",
                "lunar": "71.9792179889",
                "kilometers": "27681073.767108287",
                "miles": "17200221.6540048806"
            },
            "orbiting_body": "Earth"
        }
    ],
    "orbital_data": {
        "orbit_id": "1",
        "orbit_determination_date": "2019-07-31 23:18:08",
        "first_observation_date": "2019-07-30",
        "last_observation_date": "2019-07-31",
        "data_arc_in_days": 1,
        "observations_used": 18,
        "orbit_uncertainty": "8",
        "minimum_orbit_intersection": ".00592941",
        "jupiter_tisserand_invariant": "4.460",
        "epoch_osculation": "2458695.5",
        "eccentricity": ".3926355540958027",
        "semi_major_axis": "1.476067561678023",
        "inclination": "17.47409342358524",
        "ascending_node_longitude": "127.1915883997657",
        "orbital_period": "655.0248572915352",
        "perihelion_distance": ".8965109567157319",
        "perihelion_argument": "124.0949467169595",
        "aphelion_distance": "2.055624166640313",
        "perihelion_time": "2458650.619725218518",
        "mean_anomaly": "24.66608517444779",
        "mean_motion": ".5495974633521014",
        "equinox": "J2000",
        "orbit_class": {
            "orbit_class_type": "APO",
            "orbit_class_description": "Near-Earth asteroid orbits which cross the Earth’s orbit similar to that of 1862 Apollo",
            "orbit_class_range": "a (semi-major axis) > 1.0 AU; q (perihelion) < 1.017 AU"
        }
    },
    "is_sentry_object": false
}